{
    "CCSDS_OMM_VERS": "3.0",
    "COMMENT": "GENERATED VIA SPACE-TRACK.ORG API",
    "CREATION_DATE": "2025-05-22T17:14:14",
    "ORIGINATOR": "18 SPCS",
    "OBJECT_NAME": "BEIDOU 3 G3",
    "OBJECT_ID": "2020-040A",
    "CENTER_NAME": "EARTH",
    "REF_FRAME": "TEME",
    "TIME_SYSTEM": "UTC",
    "MEAN_ELEMENT_THEORY": "SGP4",
    "EPOCH": "2025-05-22T14:34:28.790688",
    "MEAN_MOTION": "1.00272475",
    "ECCENTRICITY": "0.00020990",
    "INCLINATION": "1.5018",
    "RA_OF_ASC_NODE": "63.4505",
    "ARG_OF_PERICENTER": "316.2425",
    "MEAN_ANOMALY": "189.9752",
    "EPHEMERIS_TYPE": "0",
    "CLASSIFICATION_TYPE": "U",
    "NORAD_CAT_ID": "45807",
    "ELEMENT_SET_NO": "999",
    "REV_AT_EPOCH": "1815",
    "BSTAR": "0.00000000000000",
    "MEAN_MOTION_DOT": "-0.00000344",
    "MEAN_MOTION_DDOT": "0.0000000000000",
    "SEMIMAJOR_AXIS": "42164.539",
    "PERIOD": "1436.087",
    "APOAPSIS": "35795.254",
    "PERIAPSIS": "35777.553",
    "OBJECT_TYPE": "PAYLOAD",
    "RCS_SIZE": "LARGE",
    "COUNTRY_CODE": "PRC",
    "LAUNCH_DATE": "2020-06-23",
    "SITE": "XSC",
    "DECAY_DATE": null,
    "FILE": "4736220",
    "GP_ID": "288145612",
    "TLE_LINE0": "0 BEIDOU 3 G3",
    "TLE_LINE1": "1 45807U 20040A   25142.60727767 -.00000344  00000-0  00000-0 0  9998",
    "TLE_LINE2": "2 45807   1.5018  63.4505 0002099 316.2425 189.9752  1.00272475 18151"
}